id,Purpose,Address_record_number,City,Country,Postal_code,Region,State,Street_line1,Street_line2,Street_line3
0,GddN,-2301,kC2uO5,3fTYp1VcoX,felh,bgqDS,Y,1uHUYgMH,FWNo,gfHkR
1,CaoW,8067,3bxhkJBRC,cTpD8DUS,vzsL6sj,IMox8eLd,rj3oV,Gd2u,KSWHN4eGeY,S5eVLGgQ
2,JUJY5Lkz,1264,5mA,w8wvuGtaW,TX26,E7h10yzNj,8YlaYJD,RPbVe,lVFTNAi6ea,8f
3,saub,-731,a,Z,9KoNcAys,oPn3aXr0,mz,Tny5BAH,m1ZxR09cN,WV3douL
4,FrAKEnek1a,-3640,nmBV,csPgnJDbX,im,Hve,JiVQts5,7f,mMSgZM3u8j,r2Ox
5,J5B6Ow2,6909,jh2,Pe,YGnXUoBiUy,FNzGaq2G,Ph6MbV,Ai30Xq3,DZHl7,jUQojxvXm
6,k759xFkg1,5423,TzI,W5B6jx6M4,kENH,o5LiPx,6wbhgC,9E2QO,zEj4Sg,MPzf82
7,meinrAB3,1939,63jBuK,ZqYfrlYqdA,sHXOPSdHr,lwiNa2R,Y4XtyU,gbXnF,70bQ,IGIJT9
8,x66HJ,3930,uwcPJ,oSTb,qYkiFRZQU,mVhXZz,VXqdVi,9Iz3Fq,0PkVQP3T,HbvwupnD
9,Ql,-598,pyvUJag,gHnCbgRHQ,Oq0Qa9yu,u,UYQsaLwu,VdT6,iOyhkAKnEa,ji
10,Oo4V3P3zlj,-5374,rzHdrf4X6e,ubALIH7r,qwKpu7,1h5C8ZXb,lEM7uLJXwy,v1rZ,51XO,gJZ0F3SA6k
11,gSMZhIwS,-3606,TRaiBpkE,0q4,7Hx,TKQFv4,nMHeU1etil,L,Ng0s,izZAQpyiBa
12,ea,7571,6nvaDy7Jl,Aw1EmCsOB,CiiP5Pi94,IJy6OM2lkU,V,d,ImV,khE0sqS
13,slPjY,7363,avWm,AM3,j5UOp6Ow,ZhrSvDa,B,Gpq1hj8tWz,1y8o8v,s9XKuk4
14,zsTNSh,-1944,DgDIG8U,QCKBOd,ZOnV,pyUgSkgZN,OTBivQlhxu,S8yQ1JOq8,rswX15J4NS,gOStuqF
15,AaJ1M,3095,Hp,Mhoi,tLcB,gcZLdY,Tf7NvIjf3y,PI,3,jnef5yEOFl
16,0s,-3718,wAYWu3n,JYhhoNU,6,o,nor7Kv6,xyQ,QRL,jwc6zWQP7x
17,ASZM0zU,-1270,CfcZG9wNg9,etFRSEP,F49LLh3g,N678C9OrZO,vUwrAHb,3U4kfsY,tgIH,z22m
18,14dSPV,7061,lzDHCTb5,qhnAeIJ,iyB6h2Z,8pmSKJq,atiu5GjCn,xtP,gZaFnnrdq,IgKlFdDnA
19,zehZg5I,8203,Ibu86G1d,0cz,j5,9SiNis,GoQ,gLgI2yp,5g9hpaIy,oiuBV
20,5PVZvgWT6,-8709,s8B5eBGX9,hu,DteMxon,MFpKu5z,3AepD9g,SC66sAVe,xQ35xUE,sXScDFHh
21,ag6kTsGe,4550,MNpIZgR,6h,5aEEWSK,21FkRZWj,8IYzU,cg,46e9j,IIHgOa8Sl
22,2U,-879,s3FV2Nk,AGio8t0hK,2,xAJMv,Jr1hfY2nv5,03rQ0a,bDIS9yPVcH,eCOwuxSO8H
23,MuYxF2bzL,-8507,3Puyzu,S0v0PfAv0,nziJcsNCjt,OeBYpZaN,uYZphoa2dh,4,dhT,M66IQN60I
24,O5,8106,BQ9mKd1Z,q20nGOA,f,Agq0Fe,fE6dZGTGLD,CfLRtJra2,ybP1c46Jn,MgF693Hl0
25,AfF1seJh,-2101,enKPvxHKrw,2Tuh8g8P,z,s9BJ,KJM43Qr4sr,ygz71LbVf,eKb2X,yR
26,t3ss,-5857,i,iTjw1mq9,C8Rq,5QVf,mYk1W3nDDe,2Ij,eVWyN3,7GgFHX
27,uKWdu8Dd,-5889,VF,i,moXa,m9,gN4Bw,It7T9,I06lt,RE
28,1nlYW,1170,e4HZI7M,fQB,IVOhCcq,sAfyqBCk2y,9EH4NSI,iES,NPKkHTlL,xTdM
29,5k,-2122,MmKloR1Tw,klG5D9fHRA,KD8K,It,rzMMm,iXvYahHp,rTwI6,S
30,Oxp,-7493,TtB,PJKpsAMVTC,bF5ki,ph9PP,noxa5,Dv,62fs5c,9tSvupwY2
31,ReQ,5817,T804PsT,w,L5G5sJzGzF,eIKSOeNEO,tpxCOKg,XxY7zQs,2dsLjbA,BorlR
32,e,-3632,3JmH5vz,LLT,byKwyI6u1r,GvV6XoL,rCEeb,aQKrR0ws,r8PFbK2A,yG2IZtzw
33,MNTI3Nl,-5998,K,4Vi,PYQLu0EJh,aT0i9,zH1n,9Qn8p,nTp,oKrjJ
34,UOv,-1411,fgVScfHCa,5mTU49GzYY,k,gziJDmlEj,2,FnznVQJuJ,Dzdvw,mxzH
35,4Q,7583,xgp30erIv,9B,rNhgD,x2LGcFeR,3Ig6G3X,1U232Ls4K,webNxN5SIj,TNXzUpX3
36,UjegptpV2p,-4242,ijOUhRV,KL9bBNkdu4,TfpzttIt,vQ,FwjEIUVT,KUgins,nbs,k6nY5H
37,PMRq6Whf,-9075,XcjxNdzPA,KYY,yCXIC,qpJK89,nIeZji9,oUxlpz6x0,KfkLTy4wz,ymvi
38,LeJ,-824,0en13,FIBA1K1T,rAG7,hz,7Xm,FvfEpOY,wmJr,moRCJzrSVD
39,uD,-9047,d9tpqivz5y,BYz,T,J,pii,8,dWvM,rzZBPA5VEa
40,7ul1FMyY2O,-278,Rib55JvKsW,2C5t,alzAttYv4,nzLSo3c6,4z7y50JD,NZaqkjD,ele,UG
41,GLhd,4574,Tybs09,7s2EDdHohu,wSBSVZ2Lnc,DacTPkX,BH,UTnlMmInH,Z,E6Gte
42,4WjOmJ,6434,eaklrJnY0J,a,nr,0zbyiG,s,Ght59w,FowfFM7CH0,wuBiLFJhgs
43,f7Ls,4704,511PfW3Z4W,kSo9Hmlm,Gluxk,n5,8NfWjP4a,g,zp,K7rT
44,lgD5,-7530,J3j8j,WRq,DzjYy,J2ls,l,XRQBr1nb93,a4tMC1,si2zl
45,TiDSaS1,5239,e,pGA4pYr,eu,QYkRanGxG,oZW,IKpNxcqaxA,H,8
46,u4X6K,-4556,x,URoxO,y,mk,mq8eW,qO6sI,zuJcM,PMd20Pf
47,ujn,-9527,nKmt1KyJ9,B3wbi9a2,XEwn23W2ZN,Z6,vGMqV6J,23gpv7spL,4vA8ybc,9wyU
48,WX,7958,BMq,Z,bim6tT,hfvTh,Ll,iGoOA9I,xJ3OxRk,EeO0
49,tKkk,-603,9ES10h,WSjkuUEtNc,Pej3t,UWwj,e,W7ZdISRZw1,Zm,E
50,oebXAw2LT5,-7492,yR7l,gfLUHZ,fTwjVY,J4S,hcQ8,W,P7wVidzng2,eNdLwePmDT
51,81ocj,7824,v14dboLa,ib5J8XdtE,qwO,AXnk8L,IOcOZW4iL,6OSqlUU,5ldGhV,Qli2
52,ytAJ,7872,94bhTxOxHq,BJW8he1v,IO6,W5b9tqTu47,cl,tRTyQj61l,E,YekKMPRRhT
53,EU,1121,KVmsBc,APJRleLIqA,iTJo,rxZ9NAj,vmXpau,0QK3Y,q8qgy9WJk,YfryQImSg
54,XYy3UTEW,-7585,L,whd6,sKRy,upYR,q,JR,I3S5cLqwRW,87ph6rJ
55,nudX78yH4A,5834,x,rsWgUVqsp,MrRcKknhOF,4B,xPqA9r0,4BsyoYcHNB,YU,p7w
56,Yxe,2680,cHNx,NajrC,A7SU,7GQ,FqW7HlaqJ,nj,SNKW1c,j
57,w1e2ZBTR,-1183,Q8UVOlq,Jd3xsjI7,HWFcDEWe,b,hpoqHvTuq,O8J6Z,LMecOffN,vS0bH
58,cYPFP,-8120,xC8,EzHdeHE,FRMU5Wv,kEIjYDK3,AtPN1eik,TQSrZV,j3,S
59,JhlUcI,-7645,l5p,QblJdz7PJ,LQ,z,IxDctyy,b9,4,qS9
60,my7CS,-7475,Uq3Ff,d,zzX,kzmSHbij,ZhBGP,29JJfx4ZOu,xcP,LLVn
61,07tWb,2206,OpL,c8Oj32acY,mW9U4rGWP,3sy,5wwt,k,VreRS9,4D
62,oIk,-9992,AG4Qde,d9D,I,PGRTI,CM,oZ1m,GXUzicW0,Sv01n5
63,VRvhuDu,1405,Q,SvMnkLMt9,9L4MWwyr,2OBXKx,4hOwukaZd,GoLM1,y5ECL9vwx5,aL2Be0
64,obtYcfUKjh,-4889,Mi90y,zxB3x,6tIxQFhxH3,yAh,QurqB,LfVQB149,Aeyg0H1,cWKF8YnYkO
65,EYk,-9567,QYY,K1lX,dzPpm,WGH94Nb0IA,T,8XFb,a1ZtOBfIQ1,xv5RYGAV
66,jqQFwh,5969,qH4bhafr,Gj,OWQW9,rEBHBycW,YMLu7,hC0,cTiDgJEv4,mHMyKpHhX
67,mYlAYC,2781,22LM,L459v,xbb43D,3Kd7vy5,91,xWMyDGfn,VTEU9u,GHkWne
68,d2,8463,nvyAeLAf4,hpx,Rng2vGcuu,pTRqO9aBG,EMUIwjf9cR,Jo0,I6Emc,MIHiD31U
69,duMp7C,-2029,UisfwYfLop,kiuwW,fAqc5wQSUv,t7QmhQBz,o7MwsGs,XXXeGeZFYp,jJ6MC,ZouW
70,6vyfvhVKT,-691,HyHj3E,u,8bfmBvC,JT,Uxspwo8,WleM9pvM,4Mzf,uD4
71,l7WA45A,2490,pGClmwTtp,yO27F6w81,GZMx,FNG1k,wpvD,fqqvUkhzC,h6,waeY
72,aIU93tBs6G,-827,uKD5Pfr,jAKYN7,GPlNes2,ZyWF,sxxuNHh,edSyy,eZNa1y,hlheo3
73,Lt,-9378,oOa,a5GR4JM,TF9Ry4iiga,vC,TWg2uyD7,73sJCrOHp7,BZ0qGkd,8J1yzMd5Em
74,2zzv8,-4258,z,Isq,YyK5nLqKI,jDx7u6xFR,LtKDjXzyD,dcHFYPv,uuvz,3Qztu
75,qF5L,801,5eC1ZkGtlM,O,HL12Hr,yJBhbCfrzK,epm6,Rmv,bNub8FMPA,7FwDQPx
76,lM9Pg,-9792,EEW,3SJ,ljODqc71,Q9yEF,eaWxYoRxm6,ws,CF,5J
77,mr,-64,Rd,wsUq3M,4F,UPCGfMd,FwdPdGf,LpLPg,Dn8LqZWSjm,Vvstv8UrV
78,9vJDpAH9D,7838,8RdMjsW0Z,bsfsLLK6,iGUitUuyl5,I1Vdi3Sv,xr3eMylrD,kkeyWcsK1t,yndK9uc8KW,8USW
79,yV4oMYOO,4713,Dlrxj6,LpV,2x3,2eiqn,YwSWqNaxuF,ngNhgB,C0cR,DvEyu0Jq
80,s,-9219,4ChgwA,q,a3kVQFeu8s,Mi,bCLZOwJ,wscGzx,GK1Qmj,z971Wpo
81,FMkdc,5685,b8IGx2d3pv,ZSyB,kd,PnY,aQlZOrk,U1dVZvo,X8dtW3JfM,MOOT2sLpO
82,dofRYXQV3x,-3801,XA,DAhR,ZfX,esabeg,JCf,zxFpcc,Z4Be,PlyO
83,DCuq,2900,RjllmQbw,rbwdWRl6T,QBH,P,yy,Nk3jIq,b,necO39jvUm
84,4bUz,-9951,mv,9KS51CL,Jeyd6CDf,faW,N,ErCByQEe,MCFk1k0Am,SwC0utZn2X
85,A4jQrNAWi,-5581,vqjGB8UT,EDhGpYQU,Qgp,0UmppiSdyd,pKyY75,3YPxLy,AHqu,O
86,1qwZ8gsl,7315,nSqsKP9,tv,pGt,s6C4UYs78,H,LZ,aUr2gHXFW,Eq
87,8ATgd,-2140,GIycSKhnZj,QiK,FAUegtCR,0a2Zl1,DKx,8ZV1dyy9q,e8jbazY,SWzfUGLBt
88,F3AD,9680,Hr11WGJ1,1,OTEQFryV,O1SMra,CxJ,GO,DyzSwcs,Dm6mI1
89,nKssmB,-9587,N4kXah76,HO427oUe,iM6,q1KDX9p,aS,7wh28Hs5,ocXWKGx4,jcvFKf
90,tyUHQEd,4724,Gw,IDT4,Oc,HgPrW,M3Q,G,1xWxlsOCW2,H
91,jYxs,-7919,rS618Wrz6E,hT7ohBcwi,3v,qkRwGygv8,i,lPZmwubs,iE2yA,gFCmH
92,DW3cDRP,-8856,LCo,clCJyEST,mJdVBlfO,PfeCn,360Yewo,J,qyDHJGYDjN,AtR4
93,Rymwzg8Tj,184,3Weru3sw,y,Rm5auF,ylWwEy6mI,aFISVEZ,XgN2yYcy,b,U
94,fRrGFnfVNQ,6757,c4,HdW5JKWQhx,MtC,BB,RUn,bJcQewnsL,jwbeKl,GdrK
95,HfN,-3230,z,eL,8aeQHJ4XJ,zEN,xb,hHcd,EICN8Ub,t
96,JqAT,1521,x9ZY2zOc4,BmnF8IlIM,0R,NiM,3072a4f,tRJvdz,r3ZDhZ6ox,58dx
97,B6HMT,-2753,AYNYZ,Opp2wYxdhX,skLLPDtQoX,ppjJSA,triC55lef,LM,WIP,i1Nf
98,BI84aTvy,-7932,J,qE,H,6lT4,B3w4InpO7,vACTAt8,0w1,Ft
99,XzgZIoc6,-3301,cmmwvPG,FnIL,i392,atbnJFx5,HY7qDUq,YC7BM,1u6uhawB3f,Ztoer
100,1E6z6Po,4319,F0M9qWrR5,aelMVED1t,dT,RMoPXjGWPs,JAuGdr3,Hkg,5zLk,m27y
101,yh,-2874,aClDx6ce,xHord,3,FRC8gEsza,ArboJi,xCJ,64p5,DegK
102,n5i,-9527,PSFv,9h,KwZWe,b5,sr,SzKEoU,KYdrE8,wN
103,4aSDqW,-1814,lpil,S1Z7WrgJ,kdK1zPZne,Mlhkh9V2a,TXailpINEm,MML8HcE8,XevJE5,9U0D
104,VQYT,-130,CA,GnbOdwdW,TMT,ySO,NxIBVb4,4vMOkXtvn,LZ2S,09Fw
105,2Enev5K1,7181,qoQ557Xn,dIM7UJF,5r2AufBeGc,xpyuIX991,V,1n,u,h1iEBEWSW
106,Grpm,8538,6R,9j7TeKqq,k,z,SrHk,js,UZ26r,UuYC1c
107,jfGIyQ6V,9114,TCZA,t,1OK2o,2MyEe,7,Fzz,l1uK4W2y,0CH
108,mY,6198,voJ,moc1j5ybR,QPAVfdJcu,1lun1ROW,94,Zp,4BfYp1qM7m,OS
109,5yoSqjw0,-7582,tRSQ4qmj,IvQJIr6t,v,W04,3zn1Lw,CXCr,th,42N
110,P7UXl3d,-3365,aSgrJgRV,lJp,PKxccx5,txycdLEu4f,ocB9WQd6,NiBfJG7,ijGr25r,Qgtr6n6
111,TuyCY2y3,9730,OtADz,6o6CUXk,eH6tf,T1PJq,0,n1vutRhISg,mHLI,MUtGZlSk0
112,6,-4709,Jupt5bj,pEvV,FkZGi,n9b7GJFR,bD94e6,RI7SaGmB,3,wPFF9l
113,mk0fFI2i,3544,el,3bbsqA,RHUU,GbWvaNADO,kzEyG,X,C7vIIj,PujHRd0CL
114,hGdTscr,425,QjK,GlH9DY8r,iE68i,YKXck,Q8dWx2pp8,JEIXhOqQA,Kv7,PlIpEU2Z91
115,L8bK4,-6745,WYOKRMV,SxG,xuMW,LbH9HxkeW,vIP,G2p2,C,HjfzrcC
116,oc5UPl6aYq,6829,S8lASpptWO,rjGc46d,dsUX24,A0RN,k4vNduqj1V,VY4LQ8KKer,jD,dwrJMRsmF
117,hW7ZPSXf,-1833,M9l,iWRR2BdRl,Dys,GpTGuyxNP9,fodMySIE,vEJFINtH,ye4iX1Y,dpYCmz1
118,U,3543,mFVdS5dm,s9jsTYQQT0,dhscjjww,O,a6nKAZO,KQU,WViLmDEc,lhutFA3
119,EKC,9822,D9,5c4CSMm,fyjkC,Ups4t,8p5m148oub,MmD9YjjG,pipl8J6,aVog0
120,1T,-8850,4gU,oheaPDD1,HP6XKzilv,7OkvErL8i,l6GO,0TgJGIk1K,KR,xT
121,tNf2L4,-2081,zWbMoK8,ulAgAw,7KvJ,tT,BeFw,PIfoFJ5x1O,W,yje3
122,RIKU,-1257,z2SSwEzU,stSFsK6q,Ehay4fz,AmI,VTMXXC3Z,ggZZyN,R17XV,y62VDuvA
123,4,1258,Ay,rZy,lv,Vm65r,i8yV,Idc43p6BM,S0lMHC,Ooj
124,3mx7si,-9824,RPdOK,qJbOjtpx4,XuX0,Od,GfV7IW,mzJaogE,vd9c5DS,0XvTY9
125,m,-9772,HIgzX5,5uoa7Tyqa0,fRviMUxE,RKfB7JyA7,4k4W,ftq,PhFBgx8t,9TXXcA
126,Fyr9ARQcA,-60,DNOYCWP,ur,BvJj,UHSC,gZvW,6sz,H,rs8
127,z,-540,0q5n1TjKY,R,pPP8Ad7,j9,N7d5,rpLZO,MXRrNg,Gf0X
128,d,9734,RAi9gHbpB,iJRetn,Oey5nQGNGZ,LOa1k2,zd,V1ETyX,QW,5Lm
129,C,-153,IaUezxY,1ss6jKFO,H,4xzP,5t,KB,b,y
130,MRtOXs6vH3,-5763,s4xjCC3oZO,DM7Sa,x,vq6qp8g1A,XXwxDHo,l6vKMG,KW7,PHi
131,F,9438,Gga5T5,fPLv,obe,JolzV,pg,e,iJEqN,Brg
132,gjIxQ,4836,TqCBUA,jmswVolCXs,YHZu0uhfDd,ygX,dWqUeV,J8bfYIf,AFD7usQyP,QztES4Oh
133,FPIsE,-1886,4nm2nffQWt,vVvamId,7hqzjyy,Ao1k4c3Ljd,C35,Ro,WkuNiQ,Id
134,c5olMJ,-5708,M4BJc,T,b4ftpTNdRx,qUgQAWyPk,5DnmEr,WB,nsTWy9rSV,tBu8e
135,UP,-5144,n,N5u12hiQI,s,TP2ga0c,6,lL,SFb,e
136,3,-8331,hQ,70k,im,6fR,Pwoyo7nceR,SPVbyZgt,e,3Qcy9ArM
137,JD,8439,3ixwrcol4,eBGUQDI,lM8Bv4,XcL,pe6XaKF,HVP,T0,y4le
138,SRZPfexKO,6501,d2d95BfV,SD9OgYD764,r,ZL05JkQz1,gdOAr,dV9rMgG,5GEODeuFt,akvgjxdq
139,CHFu1BU,5026,K2V1gNDz,JkgF6BIb,GW3TEdh,ba0rsYC5,oh,mIsyNZweN,t2IVcXb,uCiALs0HU3
140,nbT8,7897,mDJ3,NphMr0xs,fTFBWG,cAUQvt4,D7Yjl,kF5wt81,qdMRA3fx,Jn6dd7R6UC
141,0,-3919,pfFv8yyY,PG,Z9Y5ciI8,Klsj8Lh,AJYHXNfei,nAKaB3q,9YLh,fO0p
142,Clblih,5843,ejg,fYVm,JODs6AGyuD,vnWRd,D,IxZf,rG5j,9
143,WBbnw,4832,X,Kh,LES1s,S,ePgTJe9,cAhVc,H,AvDLpisuZ
144,r,-5124,KW,SrPL18,So3kZzwfr,ShPkl,KBeZ3NxJ,npO,ixEs22BUsP,I85Qfj9hF
145,5tzXlNT,6968,hPMD1yS9f,t70AwTq5,4,Xk,mvARn08HL,aHxOFg,t,3YJ7OaxRLa
146,b0zQCWMRB,1205,dba9,rS7CAE,rg0B,yWnNc4,Xu7gOhd,lR,l1I9bgGZ,JBraWaZ1nr
147,V,6253,a0,wlZ2yfRXR,7oF,rNixhQXe75,pOMD,iDtTNZ,Kyo7KLa,6vYUrrP
148,U55OJUh4yE,1066,3qatC0,I,UQ2Q,rVHKBKU,VccZ,g3HZU5H,TLL,Lxrl
149,9OoWyoNe,4464,LxFx,XNUQCbJ,LHzTgStpF,vOIm,nygp,dBZ,L5eda8qDt,ljqF9
150,En,3009,IWG84,u2I1iw6,vsiZb,fWy9,8ZMPM,2F1quc1G6W,qMNAgAg,cF
151,PoeKCRHFQM,6238,3r,aMQc1Zd,0,te,5IQjAOSLd,INchMkfZpW,EM5s8b0,R2l65sa3Kh
152,73Bs,1455,LbK6c4n,3lyKONNzDA,sX,hD,zP,FJMObKCz,gYVXl8Do,Y4fXWcUj
153,6SmWVJ,6334,h3i255a5Cp,plvUT0Xv,e,9goa61pa5,V,3iHDL,rNCLz5TCK,wecHj
154,C,-4901,9iHQ4eHzj,q8nK2877KQ,NhFKn,x,W3ujIqKNv,QL,ov,7UUsJBF4Z
155,d6nLyGOYgy,-7951,i4iAeT4H,Ctea,S1OWpwul,zTK7WS,MZk,Tc,bYsPw,uswLVb94A
156,rUZ,-8794,lP,5rkCk71pyw,ulwy6YG9t,zRUzPZ,hvbidRoav,r3FoYbCV,mPMs,a3hq26K
157,DLKQm,6697,ZrWuYK,XZHj9KEYZ,SG48rZ,Gl,VQzB1z,58p4SB,Xq862,wB
158,FvXW3E,1577,icIzubXm,I1A9Hlh,g0,grMme6jezi,O,3zAy4g,Vi,Gzm
159,zO,5580,KwXKCd,e,hRv,15p9,Kp,kO9IIYJ2,9uIck8b,0p7IGJiYu
160,rwqH69Zr,7817,479OK3U,A5I7qYtl,B5hQU2e,LHp7Hc,hM4yNvV,S44XnOl1,LS,5P
161,yT12EXgvsX,1164,7KC,2Ztj,OAG4hVLxB,xR,Fu,aLv2bUs,2UyQfcHdJ,2FYE
162,i,8558,GpvbB5,hh4MxajFP,I53fFL3q,lKJIpFyFbr,uv,Qpr8bj9371,ZNPxSCv,LMjU934abv
163,rX,9692,zlfzSqw,S,0U5j8JohG,MvzS6,sR6ViExb,HdiK1,VrwQCfjASV,3oyInIyNbB
164,7VcG133,-7616,0,6D,Vj77y,mM,35mWwqROf,PF8i5Dr9OF,bw9d,kF4OnQhS9
165,nuPF,-4168,C,WF7Nn2RHLl,2HN,ol6ekZdt2,qc82M,w0ZmtVU,a6opDXLq,YvrtUTIm
166,zPw,8790,QxdU,IjWm20cxo,s,YYMScjF5w,6Vj2KlR,x,cBcAmKlh,yb
167,mX,4826,b,Z0Alj,1o1CnI4,omNHjlZh,fgSyXoKQLf,t8nuacB6b,61rL,i3I
168,8jVQAxk3qv,-4114,hGfcnoh,OBB6,0,yuc4P,YoCKPjMGvp,h6,CUp,S6arc14hn
169,dKbrQTs,862,F5,eZshi8B1m,a,dnYbCr8,P0AiV2,Cvr,RIOBPQPUg,c0k
170,guSQnu92f,-4034,9dC2D,OiToCXcz,p62XZNKqJ,d,Z,P6dTrDzfz,rfWE2MJ7K,pCvQ
171,g,-4999,m3qY,bSa,1h5M5YyVz,N7XL,AAxvEvTm,gkIWiWuqz,yt,JRo136O
172,uuox,350,QmOmldp2,qlKcRRduc,Lo7Yv9,G,nhsqYS,phmIk1,b2,hO7Gtrfo
173,3eboG8nF,-6487,eXs4V4rfYj,UKEbwJ,0j6,yBvTUOaq1,02zz6L7Z,9aIYpzm,0TcxVffD,JB
174,zT,6760,ryK4U6YknR,gpLgQIa,pQP95WsXOz,V,E,6q6,2,r1nL1o
175,Sy,-2230,irhziYH,cwrqt,rhHQy,d1TIoXE,OWWMV,C,yhdmNcADvT,U7Ol
176,EJ0,-6787,WCbP,U,hRT8UUUkFA,vv2sz02h,6ljgjtgL,LeBY33GAiZ,v35,TRRayGgs
177,f6,6901,Mru,EMvcYekxLP,feSTvU7K1,xj8KzEzy,VpxeeDx,p4gPPIt5,yw,G
178,X8VPX,667,WJkWigTh,h9,Ir,odeagupw,ae,u,fJhy1lStho,KqVMq
179,2GOc,1030,8,PtGzS1hE,bq0,Bnsa,2bqbs,5Dx,ClYUnGc,Vz
180,L,-8519,Pj5kxsM,l542kHF,yhJ4ZIOQEY,mdJ,ux,CbbIv5,R26BdsLaY,azHOqnR
181,raimD8UFF,5674,9J3srKOZ2,Jf,OSVG5lVCLl,2XAL,SGD12McJC,l,oMfHZ6Sm,f
182,R5zSqdi31,-9069,UMu5I,iin56omcvu,8b6BFt,bpV,BgcCg3i,nvwdM,S87V,zj
183,VQF5gV0MP,-6063,egGjBqIQv,F7JOTAWw,s,Mz,d,Mh5wZbbXgL,gM,YnaP
184,rfAq3xjG5V,-6328,OwS0od,fZ,rc,x9zMsoNe,2tP,O,aXrf8J2n,gR8a
185,nQCOH,3242,VMu4MM,vpC0laX,K6UY,B,e,rAGJFt,StLuQA,eoIM2ri
186,V,3898,H7,64e,yF1nS,5ts1isvH81,wAl7yyIV,m941PBVXen,tCCkE,DGP
187,QezK2,8652,cs,Ghg,E28,adm,cR6Fjr,2cu0,cHlksTfNkz,F0ods
188,ezipy,5734,vV,x,0,lm,UioLOJSTE,3TGupq,Hzk4u,ccdfSp
189,MeYiWL85,4557,TP,2KYxz8hfk,oZSRmekk,vv2YPA0,FA,eI,sLkdIKht,7O
190,6qbss,7646,JEEl,xCIe5cgOWC,rgt2pQ,10DH6e,vMZ,fwsG,yd,EduFG2j
191,DUzyY1,-7560,nOwP,yz,GXZS7oK,8PU,0,Mekz,f552LETNV,klK
192,tQXruP,-263,VcGu,A,s2S,4J,It41Tq,556,LHYWwL8o,0PO3nj
193,1gOUq,-3069,oH,hCzg0lNb2v,yEVFU7fk,EYhiavav1B,u6q9,D,m5,i
194,uC0b8SC,3523,cfi,FwLg7vJkLI,uK0xC7RTRh,M8q,zY5mX2,B,a6Vu7IEU,Nk
195,HK,6877,fov,1bqt,YzDDYyy27,7EJ,w,RRHDQmu,dnqbQLRH5,LUmxmBH8s
196,19yA5nf,1365,KTkPe,kpYx3n0ez,3qSb,xuYCacA,p4HsrN,1GELd,nZrVhllIS,G
197,FkJgoHl160,9247,U,LEoSDY3A,byviduophB,W,CENg4L,DE0ASVH7,wP,9IX
198,p4CkzZZqwP,-4237,v,kNw24,LkHYkr,qzX2aEX0pK,dx,jUUZcN,VBVhuIxiKy,WfP60vdU7
199,fz28,4183,RwrzeIWm,R17ArZRsTg,CCLh,Q4DjaWE,X,xn,SXE,OdV6T
200,lsz,-8861,pvInMC,ss2,iY7wLs,2m9,uUomCFA,S,TffAYJ3,sI
201,6,593,bCF2W1x43m,VLd,JY,z3,UNrj,RZ,WyiCgS6,JxYYkc
202,G,9505,Pge34I,6b,E0R,Siy,G,NOC8yH8G,9NkWL4,I
203,H,9912,diNk0Owmd,r4hcK7s5at,krirdLq,9Brb,DBlRD,dnkG,H,3oUHlI
204,ZB1SUA8j,4902,rUUSQ0VA8g,XwATYwG,rCyi,oq,Tq,AVWmSCK6,Oq6Pnq,R
205,IIdAZBxn,8316,MFTd2,uZvd5Nr,0Gzb4AwW,U,mji0Q,oceIaACT,CLQGyNjs,PhEinQ
206,A,3750,PCHzSM8z,3lS6,SwnxQ,W,ZNXC,m4fzrE7,L,lH96jJKP5
207,YCTJl,2630,jQDf3Z,W6jFwvprzh,mDwg5,X,rdoKgU3RL,f,4gKY,ys
208,AMV7I,1731,DZKRhbZH,q3g64,LPjfJE,ey3l,WYlF,hKGIbFJDK,u,99E
209,JrhPu,-5302,bq,Gfp,qQ4SqT5tI,o,IghEa,ndGRHxRw,akelWFFng7,9J
210,MhhY,3992,CeWEBE6,PZDTrJkXzZ,haMSp77sRP,mHCz,OgDL0SAux,C4n2wNo,xzAVo,LLq7AQB
211,ENH2y4vsfL,7280,HW42F,O,BOxwAEYwSL,v6,OGWMvP,ergp,1B,rTFHt
212,sHuv3Phd5,-1483,VXrx3mI,XxuHd,i8,7F0MAF,onv5JUHXe,i1i4DsR,YgivD,B8nhK48
213,75VNpeAnA9,-2529,oMylql8ExY,t,73drj,2N1MJF,B3bpb3DcB,Okkcgq,1,5tq4lzpGE
214,1VVG2,-6350,CL6,NFXNu8yB,hcc7y,0Sz2Lr,c,idQ,0ojCop3U,n3s1jHk1
215,tRAzrOnCJ,-1284,kPKa9i,4w0AY4,aVkBCjQ,FDi,VU,3pWH6,Zb,b9rFeEfBPE
216,jf7UDgYw5,-4909,cPHXTVGSF,3U,7r0,4p,5FGnk8g,sjRBRNM,gcKqK8vD9,h80
217,dlGyt5U3a,688,HZvIWfUl,oC,EN51hlCsb,1r,GN6s,hzf7s,QA,QcCv
218,Qo,6972,ewm,qmCr,SWW2,BEye5GXO,uAxWGkFc,dcBPLvC,8,6WoRG
219,hzn3z8HvnW,-9838,k8h,nXIY,q56mRKa,NDRs03,wwEt,ZjE,XVq,UzBzD
220,I8kYTpV,-9453,1g,7,TucKbD4R,cBvpe0k,Fl,g0UYplob9f,q8O,nnm5ddgA
221,mb,1179,Jm,CBafH46,cNknTr7U,K,YoolKhQV,9J,YyQf8tIbj,6
222,XG1,4612,yo,W2tJTmZj,yhuVylrf,BRaE,scrhIgDViP,omN4,tJIKQ7N8,aNrdc
223,O,9776,s,h,e,kGONWs,tCveKwx,c,h3SHM,91zuSwc27
224,H,2970,AyDRAesR,bKY,WxtKRb0,UgVGLPCR,6qmv,q0W,hti,a
225,xCbam,-9950,ysY3JqThYc,Nc,m8,3NAoSfeOTI,hlV,vlRrlz,Bl,C
226,ZO4Jm2u,5101,PLu,FHLPLe,Oz,eB5gi,f,Zxk,AZM,YmouqgAvAn
227,5w6raAlCH,-2715,y,Y,DNSRHFr,D92,GN1N,Guhq7nd,wQL6,qn3zsDgcv
228,83V,7421,K9ZKFyerM,wbm,LsQ,fC,cnTbCr,VVS8JqgvBk,Yx4M,VbE5VwsJ6
229,d630qso9PX,-9436,L3hgSGeSS,GIZlPomOl,B2,vhU9eRO,j1Au,fJYIr,AG3Ll,d
230,lRYFve9,-1045,IR1,zJMDP4nA8N,Dhj8yl,3W5,nnUzSNZ,y,7v7YJYh,K53
231,oo13v,-8605,1UOh8hJ,BXxH,7lM,ZqzF7,iNK,Rs2r7fDv,iupJrwlHpv,tmgc
232,tW5i,-2217,Qj3Fooe,1AK6uQ,17Y8m2u,elm,1cMpRjRXm,0pV,FzMddgKub,HD2
233,r,7133,mfJGsjE,qJy3i,y,Mo,RK,HVHb,Z,d
234,ypA,-1341,cp69,ak,In0Sl,J5Y5y3,vF,fhy1,4,35mBguP
235,g,-8528,7w,7y9Gq,vtOWwNzcY,gF,4Z,0K5ZGm,jV,M
236,Kl7Hu3FIH,54,fTU,NCKt0LHJo,md5oEM,EsEP,GR9wONh7Au,Ucc,6uzHw4sHWn,Ee1n7Uh3F
237,K,5651,kMhGEAZNJZ,fpNBHU,OTomVnRm,ei03fgDYtY,AeqDIbnX,KGXF,tKVTUK,x
238,rcWf,2727,U9PtN,1,YUEmd,DV,xQG,kRyR4,S,ifg0
239,8lC0W8,-2606,j77,DOsItZMh,B,rCjWOU,s,g2HJRAZsa,xuCbedKv,96jLzr
240,d,-7215,kPBW0Cx,Ntx5DCrDA,lWM60,R3ps9309,k3Afamgs,h0z,5h1PJGij,jBCrl7f
241,Iy4DaA5,-1289,c0YLdKi,X3BI3,0QKrPxto0,kM6JCvpR,T9h2zL,Bi39hrk,0JMCAH,xqgO6r8Ql
242,c4k,-1417,S,sX4VKoEZ,ohMTEc9t,8xF59p9P,zeCBY8,YYAOgndpf,2nllVY0t,oWj
243,rL4,-3302,O9LAfXgc4,8kerpWJl,h4,S7g,tSJD7qHu,e3xq4jSZ1,ngU1h7nqLW,puQnPh
244,25,1184,0MTl3qPvnK,5sD8xBsoJ,8zv3l5j,jQM3D,VvAg,F34,Ka,M6R
245,dl5hURSoP2,-8217,q,ylxrWp,NuMJ,g8eLlqxBWf,DwQlEs2E,4ZL,0Upi,V
246,MQzewMWP,-1677,jHhm,KaTVFn3xf3,YZ0B0,wGpXnN63qT,vhQO9,yDo,g7t2FYRncW,47ApD1
247,OEsr8,681,alHuTI,dIA6qR,qJS9m6P,kAg2u,U15SiQwYQ,oEFuebw,J,LnAW28Us
248,P42l,-7873,NWR2EHiVr,THp,9jffFYP,xu,R3HhL,YG3,GDG9DZ,34S2
249,cEbzjGXTeJ,1889,77bI0Ee,kSYgiV,RUlc00,TGPEaUNs,jbsTWPa,MauCd,OLjCqe,h2
250,JRxgahnNEU,2147,L0RTxm,VaEczQUl,6fLBFjm,BsD,0iP,k,WVT,L
251,R05m2GjU,-7298,zCR1U6IMt,U,4S97pt24,JqNQ3Akh2F,2,r3XV3uQ3,CeXKQtcpKZ,IW
252,c44LV,-3886,9pkHeGXvG,9gNRkjWUEM,6E1rnuibIR,W1jz67,ZrQ2zdk,oy4JbBOm,bCRHW0uG,YDl97ay7
253,r,5343,d,p,SS,o2ZHZXPn,rd6u,IXvHl,IsZSS,IKnGns
254,sqKUSPNR,9630,BO9A,TMXgmOfvPN,Zsl,R52QhsWIM1,7uDUJGy,sW,ke8T2,r6
255,W,2722,5D5wFAw7,t8,K5MaUhV,jn41vgvZ0,KG3,dFf63Q,My,ZouiVnUA
256,eTCvF,-9122,9,SNcEjhY,4eZBWGPK,0FKtWu8,zUlHR81HYq,ewQv0mt0KF,KU8uJ,O
257,aX6IirCg,-4123,zUNP,89Fk3,sO,WfSoQaaLF,wS,0Fvh8T,7dIEJVVJ0,3k0
258,5eGx5DddH7,5942,Wk6dH71I,tP0JZ,pOU6,lcfE,n,w,kgQGKe,zx2s0i5S
259,agzM,9150,IedxP1NPMB,osNa,VYS3oh,KS,Xosow4iuoP,DI9TLl4a,k6RKI,CD
260,fAA36ujfqr,-7072,5z,U,qWWojf2v,XcSYdKr,BmQLv,8wqLYBU,voQ8VZ,lo7r
261,OlNp,8865,BW4,ACy3,eqs,w4LuPxWDQ,DoSS,fp1BxELY,Q4SwdR,b
262,lkz,1300,8,VT00PsEF3,FhAd,3ZYyJZ,ECefaJyBa,1U0zjRWJ,sjI0,AqJzq
263,M0UdMJ,5302,ktwKs,1fNA5mWiT,qqjO,tN,25TZbA,K1onZhEF,bx90et0C,ZnLJW8XOED
264,3QgSM3P1I,9380,xSX,lJRlg1h9,DVNwu,1jr6JN,7vLFp,TRVZdy,mVj,OwFq
265,aFhjJc,-9331,Q,eZrHLeUe,tOotjUX,yTFK0,yi,vLgXjrBO,Nhb2fsyON,cHPVhEXxxq
266,CbRs,1064,XZDoEWfe,JYs,JBeSvHYSh,vf,1MN,6uJiniP,uxGH0,okwG
267,dzO8Jg5Iz4,-2961,uLUf14X,AUoiIjd,Upy4aW,z0,UjhbhE0ft,NL96,Mze2KQRksm,K
268,DLD,-6101,VuMZAHjH,h5rtOZ,kcrChvWn,O,O4i7JWdcI,jGT1,ofIiNN,FbswAKDH
269,OqPy1B,-4142,pFIj93bhV,K53l,6WafUXXOS,2r326uwpI9,e4Ly,p,aQLw6,uRuhRP0
270,Z,9674,7Hmq,oP46,MIU6OEJy6,50,opoKn0OV,O,r5lQWf,2euhZ5
271,D3F5,9109,To225j,1mA,4OhSF,Wk7K,N,J,ltnO5Iy,rB9cn3PE
272,a5,7743,J,m,RkTCX9xEq1,fe7X34q,LJ,2zMr,a,llFLy9
273,TngKTDI,-3569,dAUoD,bzIC04,1b,GWk,bdtv,E3iMw,pA5pfdgdw,D9pv
274,zttZA,-3811,bPC0XRc2o,Wkgnz9,DC0Qp,ckTIZDEJC,SnqlIU7,SSaZ,ZZZrXtJJ,DbaF3TRcwQ
275,sX,-9814,a9,kT41Ja,3tCJG,6GxNHukoH,a2CEvRM,KDCPZ0T,JNRwxOpF,LXAHL
276,R7G,1368,VuFhO,0b,iEyXl1,lp0hvj,ETWzQ,7dDGAb6bZ,6,pM3uM5oSuZ
277,p3,-487,Uqbh9MZo8m,0emAMu,uPacJMf,cdUdsjB,w5byT07f7,W,xqLpU,t
278,l,5423,ExpGUUUF,tk6lBQ,eIsksTe,4ABjR1N6,61xKfi1,weGij,uOd,YhEsMn
279,dFzoXc3,9341,l,sP,dS8cgs,Te6GptHA,VfT,nXde,sH0uJl,VDmGB9e
280,HmLYEHby7Z,-8480,Wc,uq6,6iLAKRx6tP,3CUY,lUA,81r,A1,pmF2ja9TEo
281,D9oCo,8367,Opd1a,Dm8xgOIa,on,jJHZc1O,cR,ZtzBdTQor,3Jk5q5gVn,Yuc5I6r0
282,hEnoKB,-5688,10cftjTX1,Rwd0VZwuY,XDeNdIY4,ca,jxqk7lnq,n8i,zTtNR,adKN
283,hatt,-7770,4,qptq,m36gta66,7iA,WWKRU72NQ8,9,y5MvD,uUjUf4
284,ItMbumV,7350,OFbrW,s7SBE,EAcA,rgSPHrs34u,bsL,zKz,zF3,ler5wMfJiM
285,xi,6446,I,sWTbZs,5Ta,lSYq,RXMSZvyMS,IoWf59t0d4,hKCPCgJIM,CVL
286,pKRFYx,2991,ijaF3,iSPL475lk,xnhafwUPLo,lkC,h,vJzzHHA7,y,jF847
287,By82Va1E,-5952,a,2iVIg3,lLLz59,TjTNgfkx,ao,jn,YJoOMNcyQq,UL
288,VI,-983,ZlQA,Q7,ptAdFlCfS,wP,7Tg,js9K,VDg,D
289,euJ,-5242,Ab,vc0l,ZRY7y,o3YpX8f,y,8uT6fnPF,l,ol1Z9jQj
290,ozeiiboP,7136,CjUDb,tT1EwpePs,pqDXyFVNJi,pj54vYD,wCB,U6Fq,BBnqF9mMZ,ZIe88Zj9Wz
291,FKS,6823,Rnl,LWC80,s7lKVJ0R2W,LCK,oOsKLqAW,nl6,ySx47Qo,ykUJG
292,eHkoZD,8607,F,joOTxVsdx4,d,I2kcR1FtyW,n1n,vK,vPC,Trs0K
293,DWVX,7106,FUtEFC,DYI5WaA,fc,0I9z4TXq,gvh0sWfFI,5,2QYJNvcP,6TjC
294,ob0X,-3305,B,VCOet,EDVQ,TG,NRM7uz9k,ou8O8z,DF0wmM,ki
295,2k0l6TO,-7971,CcKA,eAJCW,7m,jJC,w3mu,rCOmU,ymZTfbk,bMF0Y
296,z2Fx,9268,kU6svgr,tJd,daEmVTg,QrWQ,IlsM0iV,XV7QQXKg9,10h,FOSGiQX25d
297,naBAt0RFAP,-3290,hH,E6uTValU,fx,ijzIdpk73,7Rflseph,arqzFjne2E,SMk,QofC99V
298,4IVqAF6,-7201,AlxOxWYDg,YxZ,x8z,TOI,PmEam4SvY,879xUz,W9,4aXqoBty
299,wcaXt,-4837,ZWoi,Kylr1D,ZGiLAm,b,TsglVvHR2O,p,OkYO7Hw,Qq49qKy
